satname,norad_id,inclination_deg,eccentricity,mean_motion_rev_per_day,perigee_km,apogee_km,l1,l2
STARLINK-1169,45061,53.0548,0.0001224,15.06403808,546.3522257563482,548.0475482262837,1 45061U 20006T   25269.29177868  .00000655  00000+0  62843-4 0  9998,2 45061  53.0548 304.6323 0001224  87.3776 272.7353 15.06403808311684
STARLINK-1171,45062,53.0546,0.0001378,15.06398331,546.2623594514553,548.1709869237866,1 45062U 20006U   25269.27703340 -.00000571  00000+0 -19460-4 0  9993,2 45062  53.0546 304.6928 0001378  97.7633 262.3512 15.06398331311687
STARLINK-1133,45064,53.0529,0.0001409,15.06396906,546.2452576709675,548.1968235668146,1 45064U 20006W   25269.28993503  .00000114  00000+0  26527-4 0  9991,2 45064  53.0529 284.6329 0001409  68.3845 291.7294 15.06396906311966
STARLINK-1150,45067,53.0398,0.0001083,16.01882651,268.48538887900577,269.9252032203294,1 45067U 20006Z   25269.30260138  .00625495  19069-3  10744-2 0  9994,2 45067  53.0398 226.8301 0001083 152.0476 208.0613 16.01882651312779
STARLINK-1167,45071,53.0539,0.0001516,15.063982,546.1671910068007,548.2669583622446,1 45071U 20006AD  25269.24940333 -.00000027  00000+0  17074-4 0  9999,2 45071  53.0539 284.8229 0001516  94.6177 265.4986 15.06398200311959
STARLINK-1168,45072,53.0541,0.0001472,15.06405021,546.1767602966511,548.2155783817043,1 45072U 20006AE  25269.25307581  .00001138  00000+0  95252-4 0  9990,2 45072  53.0541 284.8033 0001472  88.3469 271.7688 15.06405021311950
STARLINK-1172,45074,53.0527,0.0001533,15.06389257,546.1828229002012,548.3061448631588,1 45074U 20006AG  25269.19778305 -.00002820  00000+0 -17054-3 0  9995,2 45074  53.0527 285.0531 0001533  89.4851 270.6314 15.06389257311942
STARLINK-1153,45080,53.055,0.0001329,15.06388758,546.3256298609485,548.1663966658753,1 45080U 20006AN  25269.04298905 -.00001196  00000+0 -61453-4 0  9997,2 45080  53.0550 285.7477 0001329  90.2475 269.8666 15.06388758311929
STARLINK-1151,45081,53.0546,0.0001018,15.06464844,546.3078472938005,547.7178077986882,1 45081U 20006AP  25269.29361454 -.00013575  00000+0 -89264-3 0  9998,2 45081  53.0546 284.6999 0001018  94.8243 265.2863 15.06464844311964
STARLINK-1190,45083,53.0478,0.0008422,15.74649053,339.96727074823866,351.2927839290869,1 45083U 20006AR  25269.33336806  .00194477  00000+0  12738-2 0  9998,2 45083  53.0478 254.2502 0008422  52.4853 318.3408 15.74649053  5996
STARLINK-1173,45084,53.0434,0.0007724,15.85228762,310.5103712208147,320.85098076669055,1 45084U 20006AS  25269.33336806  .00399912  00000+0  15767-2 0  9995,2 45084  53.0434 217.8067 0007724  41.5092  16.2099 15.85228762  6058
STARLINK-1179,45085,53.0376,0.0002034,16.0438993,260.9273563104298,263.6286771392324,1 45085U 20006AT  25269.03294954  .01984795  29017-2  30513-2 0  9998,2 45085  53.0376 209.4058 0002034 174.5366 185.5688 16.04389930312995
STARLINK-1185,45087,53.0539,0.0001383,15.06398873,546.2572358498483,548.1727882163759,1 45087U 20006AV  25269.20333334 -.00000052  00000+0  15384-4 0  9999,2 45087  53.0539 265.0262 0001383  80.6497 279.4648 15.06398873312234
STARLINK-1183,45088,53.0548,0.0001331,15.06400864,546.2871463633728,548.1306734445898,1 45088U 20006AW  25269.22542898 -.00000104  00000+0  11934-4 0  9994,2 45088  53.0548 264.9275 0001331  82.5492 277.5648 15.06400864312239
STARLINK-1176,45090,53.0475,0.0003868,15.82795816,319.94656288832175,325.13020536548265,1 45090U 20006AY  25269.33336806  .00400328  00000+0  17734-2 0  9992,2 45090  53.0475 215.6240 0003868  30.7252 139.2522 15.82795816  5885
STARLINK-1142,45093,53.0374,0.0005805,15.51328556,408.9039409549441,416.78827234176333,1 45093U 20006BB  25269.33336806  .00152664  00000+0  25121-2 0  9991,2 45093  53.0374 210.1941 0005805  86.7294 310.2600 15.51328556  6039
STARLINK-1146,45094,53.0428,0.0005004,16.06180861,254.02055552534694,260.66134185639567,1 45094U 20006BC  25269.21893789  .00936137  47885-3  12417-2 0  9992,2 45094  53.0428 209.4412 0005004 116.8942 243.2602 16.06180861313012
STARLINK-1147,45095,53.0394,0.0005772,15.94859909,284.8566617896313,292.55286392067137,1 45095U 20006BD  25269.33336806  .00423093  82449-4  10773-2 0  9999,2 45095  53.0394 211.9863 0005772  45.3554  81.9955 15.94859909  6097
STARLINK-1152,45096,53.0461,0.0006536,15.21165117,497.82796503325335,506.8221050054299,1 45096U 20006BE  25269.21326076  .00075549  00000+0  33265-2 0  9993,2 45096  53.0461 251.2357 0006536  59.0369 301.1268 15.21165117312425
STARLINK-1184,45098,53.0547,0.0001385,15.06387172,546.2917079691351,548.2100404102866,1 45098U 20006BG  25268.24498068  .00000974  00000+0  84327-4 0  9995,2 45098  53.0547 269.3309 0001385  95.5107 264.6040 15.06387172312084
STARLINK-1193,45100,53.054,0.0001246,15.06385133,546.3942194189931,548.1200276345762,1 45100U 20006BJ  25268.17494465 -.00000178  00000+0  69203-5 0  9992,2 45100  53.0540 269.6427 0001246  91.5905 268.5227 15.06385133312077
STARLINK-1143,45179,53.056,0.0003362,15.34573021,459.8893160386169,464.4887512636442,1 45179U 20012B   25269.00003472  .00081786  00000+0  23919-2 0  9996,2 45179  53.0560  37.4717 0003362 222.8072 324.3263 15.34573021  5710
STARLINK-1202,45183,53.0552,0.0001372,15.064003,546.2604807856387,548.1607961776372,1 45183U 20012F   25269.16647006  .00002326  00000+0  17499-3 0  9995,2 45183  53.0552  65.1925 0001372  86.9611 273.1536 15.06400300310049
STARLINK-1216,45185,53.0548,0.0001203,15.06403539,546.3675933075374,548.0338295609081,1 45185U 20012H   25268.76100311  .00002282  00000+0  17200-3 0  9996,2 45185  53.0548  67.0097 0001203  94.5395 265.5731 15.06403539309928
STARLINK-1225,45187,53.054,0.0001144,15.06407123,546.3974696776258,547.9819844327758,1 45187U 20012K   25268.71308712  .00002833  00000+0  20899-3 0  9998,2 45187  53.0540  67.2252 0001144  95.9732 264.1387 15.06407123309960
STARLINK-1230,45189,53.0546,0.000133,15.06374378,546.3690049885563,548.2111685936434,1 45189U 20012M   25268.71679309 -.00004933  00000+0 -31273-3 0  9996,2 45189  53.0546  67.2111 0001330  95.5919 264.5222 15.06374378307192
STARLINK-1234,45190,53.0559,0.0001325,15.06410956,546.2603753449475,548.0955838145373,1 45190U 20012N   25268.73520284  .00007827  00000+0  54362-3 0  9994,2 45190  53.0559  27.1275 0001325  87.1485 272.9655 15.06410956310430
STARLINK-1240,45194,53.0378,0.0005723,16.12032646,237.48478037033237,245.0613571350259,1 45194U 20012S   25269.23725424  .01037313  67500-3  94315-3 0  9995,2 45194  53.0378   4.8028 0005723   2.2569 357.8491 16.12032646310781
STARLINK-1244,45196,53.0299,0.0005141,16.28572815,192.99804270555524,199.7579590294472,1 45196U 20012U   25269.74998736  .04073360  12070-4  99217-3 0  9995,2 45196  53.0299   0.9376 0005141 329.1255  30.9483 16.28572815311038
STARLINK-1269,45197,53.0547,0.0001836,15.06393793,545.9590840766523,548.5020790526014,1 45197U 20012V   25267.73263158  .00000292  00000+0  38509-4 0  9999,2 45197  53.0547  71.6311 0001836  96.0281 264.0917 15.06393793309798
STARLINK-1154,45198,53.0544,0.0002118,15.06391606,545.7704901853322,548.7040787322294,1 45198U 20012W   25268.91767817  .00000840  00000+0  75304-4 0  9995,2 45198  53.0544  46.3118 0002118  94.3998 265.7233 15.06391606310220
STARLINK-1199,45201,53.0555,0.0001051,15.06409788,546.4537083098603,547.9094102710233,1 45201U 20012Z   25268.66331331  .00002257  00000+0  17029-3 0  9993,2 45201  53.0555  47.4502 0001051  95.4094 264.7015 15.06409788310240
STARLINK-1208,45205,53.0383,0.0001656,16.08433869,250.04527770732147,252.24089527196702,1 45205U 20012AD  25269.20603110  .01041354  63390-3  12026-2 0  9993,2 45205  53.0383 347.3381 0001656  28.4789 331.6334 16.08433869311157
STARLINK-1209,45206,53.0553,0.0001434,15.06396712,546.2285387747597,548.2147316313367,1 45206U 20012AE  25268.60619854  .00007100  00000+0  49513-3 0  9996,2 45206  53.0553  27.7093 0001434  75.9630 284.1519 15.06396712309563
STARLINK-1210,45207,53.029,0.0011972,15.48072941,414.22222289631827,430.50534196977605,1 45207U 20012AF  25269.33336806  .00116102  00000+0  21504-2 0  9993,2 45207  53.0290 355.7897 0011972 282.9614   4.1390 15.48072941  5952
STARLINK-1231,45212,53.0523,0.0002696,15.09302473,536.4654754412131,540.1948345311812,1 45212U 20012AL  25268.65186097  .00043945  00000+0  27271-2 0  9999,2 45212  53.0523  46.9526 0002696 200.7812 159.3069 15.09302473310202
STARLINK-1271,45217,53.054,0.0001113,15.06393051,546.4620620393689,548.0036493692487,1 45217U 20012AR  25268.64859319  .00001510  00000+0  12028-3 0  9994,2 45217  53.0540  47.5143 0001113  84.6637 275.4479 15.06393051310243
STARLINK-1191,45222,53.0559,0.0001362,15.06397532,546.275888509329,548.1623555169654,1 45222U 20012AW  25268.59145393  .00003622  00000+0  26193-3 0  9998,2 45222  53.0559  27.7729 0001362  91.5005 268.6140 15.06397532310518
STARLINK-1212,45223,53.0565,0.0001375,15.06391161,546.2864091810452,548.1908874843357,1 45223U 20012AX  25268.74265231 -.00000310  00000+0 -19369-5 0  9992,2 45223  53.0565  27.7486 0001375  85.5508 274.5639 15.06391161310534
STARLINK-1215,45225,53.0562,8.25e-05,15.06409384,546.6114585958294,547.7541363624132,1 45225U 20012AZ  25268.63199084  .00016860  00000+0  11478-2 0  9999,2 45225  53.0562  27.5899 0000825  97.9630 262.1453 15.06409384310478
STARLINK-1217,45226,53.044,0.0001464,15.91366914,297.4794012222437,299.4343079028595,1 45226U 20012BA  25269.33336806  .00326081  50974-4  10016-2 0  9999,2 45226  53.0440 332.3300 0001464 324.4911 217.8331 15.91366914  6062
STARLINK-1221,45227,53.068,0.0002925,15.35260537,458.14653966467813,462.14693565120797,1 45227U 20012BB  25269.18401042  .00020375  00000+0  59600-3 0  9998,2 45227  53.0680 325.2566 0002925 198.9167 161.1726 15.35260537311389
STARLINK-1222,45228,53.056,0.0001475,15.06412038,546.1531799774029,548.1961469181197,1 45228U 20012BC  25268.53247723  .00018369  00000+0  12484-2 0  9999,2 45228  53.0560  28.0370 0001475  71.9081 288.2069 15.06412038310396
